NORAD_CAT_ID,OBJECT_NAME,OBJECT_TYPE,EPOCH,MEAN_MOTION,ECCENTRICITY,INCLINATION,RA_OF_ASC_NODE,ARG_OF_PERICENTER,MEAN_ANOMALY,BSTAR,MEAN_MOTION_DOT,MEAN_MOTION_DDOT,TLE_LINE0,TLE_LINE1,TLE_LINE2,SEMIMAJOR_AXIS,PERIOD,APOGEE,PERIGEE,DECAYED
53634.0,STARLINK-4592,PAYLOAD,2023-10-20 21:04:26,15.08821882,0.000158,53.2167,173.2549,82.9119,277.2053,-6.5652e-05,-1.332e-05,0.0,0 STARLINK-4592,1 53634U 22104AY  23293.87808533 -.00001332  00000-0 -65652-4 0  9990,2 53634  53.2167 173.2549 0001580  82.9119 277.2053 15.08821882 64764,6917.936,95.439,540.894,538.708,0.0
53634.0,STARLINK-4592,PAYLOAD,2023-10-21 01:50:35,15.08826803,0.0001589,53.2173,172.3574,96.6252,263.4921,-8.6298e-05,-1.661e-05,0.0,0 STARLINK-4592,1 53634U 22104AY  23294.07680349 -.00001661  00000-0 -86298-4 0  9990,2 53634  53.2173 172.3574 0001589  96.6252 263.4921 15.08826803 63777,6917.921,95.438,540.885,538.686,0.0
53634.0,STARLINK-4592,PAYLOAD,2023-10-21 16:09:02,15.08875861,0.0001689,53.2182,169.6841,75.2315,284.8865,-0.00043297,-7.179e-05,0.0,0 STARLINK-4592,1 53634U 22104AY  23294.67295008 -.00007179  00000-0 -43297-3 0  9991,2 53634  53.2182 169.6841 0001689  75.2315 284.8865 15.08875861 63869,6917.771,95.435,540.804,538.467,0.0
53634.0,STARLINK-4592,PAYLOAD,2023-10-21 22:30:33,15.08869197,0.0001593,53.217,168.4927,95.6539,264.4634,0.00013828,1.915e-05,0.0,0 STARLINK-4592,1 53634U 22104AY  23294.93788250  .00001915  00000-0  13828-3 0  9993,2 53634  53.2170 168.4927 0001593  95.6539 264.4634 15.08869197 64927,6917.791,95.436,540.758,538.554,0.0
53634.0,STARLINK-4592,PAYLOAD,2023-10-22 01:41:19,15.0886882,0.000169,53.2169,167.8977,100.4417,259.6765,0.00015238,2.14e-05,0.0,0 STARLINK-4592,1 53634U 22104AY  23295.07035884  .00002140  00000-0  15238-3 0  9995,2 53634  53.2169 167.8977 0001690 100.4417 259.6765 15.08868820 63923,6917.792,95.436,540.826,538.488,0.0
53634.0,STARLINK-4592,PAYLOAD,2023-10-22 20:46:00,15.08820065,0.0001446,53.2171,164.333,111.4164,248.6982,-8.5859e-05,-1.653e-05,0.0,0 STARLINK-4592,1 53634U 22104AY  23295.86528385 -.00001653  00000-0 -85859-4 0  9992,2 53634  53.2171 164.3330 0001446 111.4164 248.6982 15.08820065 64043,6917.941,95.439,540.807,538.806,0.0
53634.0,STARLINK-4592,PAYLOAD,2023-10-22 22:21:23,15.0882245,0.000138,53.2172,164.035,107.0403,253.074,-6.6713e-05,-1.349e-05,0.0,0 STARLINK-4592,1 53634U 22104AY  23295.93152250 -.00001349  00000-0 -66713-4 0  9994,2 53634  53.2172 164.0350 0001380 107.0403 253.0740 15.08822450 65073,6917.934,95.439,540.754,538.844,0.0
53634.0,STARLINK-4592,PAYLOAD,2023-10-23 20:36:47,15.08834205,0.0001333,53.217,159.8699,99.2249,260.8894,-0.00011818,-2.168e-05,0.0,0 STARLINK-4592,1 53634U 22104AY  23296.85888454 -.00002168  00000-0 -11818-3 0  9993,2 53634  53.2170 159.8699 0001333  99.2249 260.8894 15.08834205 64196,6917.898,95.438,540.685,538.841,0.0
53634.0,STARLINK-4592,PAYLOAD,2023-10-23 22:12:10,15.08836067,0.0001405,53.2165,159.5745,102.5361,257.5789,-8.6596e-05,-1.666e-05,0.0,0 STARLINK-4592,1 53634U 22104AY  23296.92512236 -.00001666  00000-0 -86596-4 0  9991,2 53634  53.2165 159.5745 0001405 102.5361 257.5789 15.08836067 65221,6917.892,95.438,540.729,538.785,0.0
53634.0,STARLINK-4592,PAYLOAD,2023-10-24 07:44:29,15.08844158,0.0001485,53.2164,157.7896,116.4786,243.6359,-0.00012842,-2.331e-05,0.0,0 STARLINK-4592,1 53634U 22104AY  23297.32255825 -.00002331  00000-0 -12842-3 0  9996,2 53634  53.2164 157.7896 0001485 116.4786 243.6359 15.08844158 64262,6917.868,95.437,540.76,538.705,0.0
53634.0,STARLINK-4592,PAYLOAD,2023-10-25 21:53:44,15.08835927,0.0001345,53.2169,150.6521,96.0547,264.0598,7.4715e-05,9.01e-06,0.0,0 STARLINK-4592,1 53634U 22104AY  23298.91232317  .00000901  00000-0  74715-4 0  9990,2 53634  53.2169 150.6521 0001345  96.0547 264.0598 15.08835927 64500,6917.893,95.438,540.688,538.827,0.0
53634.0,STARLINK-4592,PAYLOAD,2023-10-25 23:29:07,15.08835369,0.0001375,53.2167,150.3546,100.9521,259.1626,8.0624e-05,9.95e-06,0.0,0 STARLINK-4592,1 53634U 22104AY  23298.97856321  .00000995  00000-0  80624-4 0  9992,2 53634  53.2167 150.3546 0001375 100.9521 259.1626 15.08835369 65533,6917.895,95.438,540.711,538.808,0.0
53634.0,STARLINK-4592,PAYLOAD,2023-10-26 21:44:30,15.088494,0.0001343,53.2166,146.1901,102.0812,258.0331,3.0136e-05,1.92e-06,0.0,0 STARLINK-4592,1 53634U 22104AY  23299.90591395  .00000192  00000-0  30136-4 0  9995,2 53634  53.2166 146.1901 0001343 102.0812 258.0331 15.08849400 65678,6917.852,95.437,540.646,538.788,0.0
53634.0,STARLINK-4592,PAYLOAD,2023-10-27 07:16:50,15.08841518,0.0001321,53.2163,144.4061,103.5857,256.5283,-2.2813e-05,-6.51e-06,0.0,0 STARLINK-4592,1 53634U 22104AY  23300.30335882 -.00000651  00000-0 -22813-4 0  9994,2 53634  53.2163 144.4061 0001321 103.5857 256.5283 15.08841518 64719,6917.876,95.437,540.655,538.827,0.0
53634.0,STARLINK-4592,PAYLOAD,2023-10-27 13:38:22,15.08838904,0.0001393,53.2174,143.2179,90.8827,269.2324,-4.5634e-06,-3.61e-06,0.0,0 STARLINK-4592,1 53634U 22104AY  23300.56832051 -.00000361  00000-0 -45634-5 0  9997,2 53634  53.2174 143.2179 0001393  90.8827 269.2324 15.08838904 65771,6917.884,95.438,540.712,538.785,0.0
53634.0,STARLINK-4592,PAYLOAD,2023-10-27 19:59:55,15.08842856,0.000137,53.2172,142.0286,90.6974,269.4175,-1.0992e-05,-4.63e-06,0.0,0 STARLINK-4592,1 53634U 22104AY  23300.83327779 -.00000463  00000-0 -10992-4 0  9994,2 53634  53.2172 142.0286 0001370  90.6974 269.4175 15.08842856 65813,6917.872,95.437,540.684,538.789,0.0
53634.0,STARLINK-4592,PAYLOAD,2023-10-28 07:07:37,15.08836872,0.0001309,53.2154,139.9475,91.7237,268.3905,-5.1765e-05,-1.112e-05,0.0,0 STARLINK-4592,1 53634U 22104AY  23301.29696190 -.00001112  00000-0 -51765-4 0  9996,2 53634  53.2154 139.9475 0001309  91.7237 268.3905 15.08836872 65881,6917.89,95.438,540.661,538.849,0.0
53634.0,STARLINK-4592,PAYLOAD,2023-10-28 19:50:42,15.08838922,0.0001394,53.2163,137.5665,100.9802,259.1347,-9.0794e-05,-1.733e-05,0.0,0 STARLINK-4592,1 53634U 22104AY  23301.82688280 -.00001733  00000-0 -90794-4 0  9990,2 53634  53.2163 137.5665 0001394 100.9802 259.1347 15.08838922 64943,6917.884,95.438,540.713,538.784,0.0
53634.0,STARLINK-4592,PAYLOAD,2023-10-29 19:41:28,15.08853589,0.000166,53.2157,133.1081,86.7716,273.3466,-0.0001196,-2.192e-05,0.0,0 STARLINK-4592,1 53634U 22104AY  23302.82047447 -.00002192  00000-0 -11960-3 0  9992,2 53634  53.2157 133.1081 0001660  86.7716 273.3466 15.08853589 65094,6917.839,95.437,540.852,538.555,0.0
53634.0,STARLINK-4592,PAYLOAD,2023-10-30 13:10:44,15.0882904,0.000134,53.2166,129.8372,98.7232,261.3912,-1.0823e-05,-4.6e-06,0.0,0 STARLINK-4592,1 53634U 22104AY  23303.54912738 -.00000460  00000-0 -10823-4 0  9990,2 53634  53.2166 129.8372 0001340  98.7232 261.3912 15.08829040 65201,6917.914,95.438,540.706,538.852,0.0
53634.0,STARLINK-4592,PAYLOAD,2023-10-30 19:32:17,15.08831159,0.000133,53.2163,128.6482,97.9729,262.1414,1.1076e-05,-1.12e-06,0.0,0 STARLINK-4592,1 53634U 22104AY  23303.81408655 -.00000112  00000-0  11076-4 0  9992,2 53634  53.2163 128.6482 0001330  97.9729 262.1414 15.08831159 66265,6917.907,95.438,540.692,538.852,0.0
53634.0,STARLINK-4592,PAYLOAD,2023-10-31 13:01:31,15.08836415,0.0001353,53.2166,125.377,100.538,259.5765,-3.9073e-05,-9.1e-06,0.0,0 STARLINK-4592,1 53634U 22104AY  23304.54272721 -.00000910  00000-0 -39073-4 0  9990,2 53634  53.2166 125.3770 0001353 100.5380 259.5765 15.08836415 65359,6917.891,95.438,540.692,538.82,0.0
53634.0,STARLINK-4592,PAYLOAD,2023-10-31 19:23:04,15.08833897,0.0001342,53.2176,124.1879,97.2287,262.8857,3.2828e-05,2.35e-06,0.0,0 STARLINK-4592,1 53634U 22104AY  23304.80768633  .00000235  00000-0  32828-4 0  9990,2 53634  53.2176 124.1879 0001342  97.2287 262.8857 15.08833897 66411,6917.899,95.438,540.692,538.836,0.0
53634.0,STARLINK-4592,PAYLOAD,2023-11-01 04:55:22,15.08843481,0.000134,53.2175,122.4037,97.5349,262.5796,-0.00010492,-1.957e-05,0.0,0 STARLINK-4592,1 53634U 22104AY  23305.20512553 -.00001957  00000-0 -10492-3 0  9999,2 53634  53.2175 122.4037 0001340  97.5349 262.5796 15.08843481 66472,6917.87,95.437,540.662,538.808,0.0
53634.0,STARLINK-4592,PAYLOAD,2023-11-01 20:49:14,15.08839129,0.0001325,53.2176,119.4301,98.7585,261.3557,5.3495e-05,5.64e-06,0.0,0 STARLINK-4592,1 53634U 22104AY  23305.86752459  .00000564  00000-0  53495-4 0  9994,2 53634  53.2176 119.4301 0001325  98.7585 261.3557 15.08839129 65555,6917.883,95.438,540.665,538.831,0.0
53634.0,STARLINK-4592,PAYLOAD,2023-11-02 20:40:01,15.08841699,0.0001325,53.2172,114.9661,89.3151,270.7993,2.6493e-05,1.34e-06,0.0,0 STARLINK-4592,1 53634U 22104AY  23306.86112463  .00000134  00000-0  26493-4 0  9991,2 53634  53.2172 114.9661 0001325  89.3151 270.7993 15.08841699 66728,6917.875,95.437,540.657,538.824,0.0
53634.0,STARLINK-4592,PAYLOAD,2023-11-03 04:36:57,15.088389,0.0001155,53.2171,113.4799,88.8664,271.2461,-3.6067e-05,-8.62e-06,0.0,0 STARLINK-4592,1 53634U 22104AY  23307.19232748 -.00000862  00000-0 -36067-4 0  9995,2 53634  53.2171 113.4799 0001155  88.8664 271.2461 15.08838900 65756,6917.884,95.438,540.548,538.95,0.0
53634.0,STARLINK-4592,PAYLOAD,2023-11-03 12:33:52,15.08839816,0.00013,53.2165,111.9941,89.8198,270.2943,1.9187e-05,1.7e-07,0.0,0 STARLINK-4592,1 53634U 22104AY  23307.52352554  .00000017  00000-0  19187-4 0  9994,2 53634  53.2165 111.9941 0001300  89.8198 270.2943 15.08839816 66826,6917.881,95.438,540.645,538.847,0.0
53634.0,STARLINK-4592,PAYLOAD,2023-11-03 20:30:47,15.08846726,0.0001265,53.2169,110.5072,92.8931,267.2206,2.7719e-05,1.53e-06,0.0,0 STARLINK-4592,1 53634U 22104AY  23307.85471998  .00000153  00000-0  27719-4 0  9995,2 53634  53.2169 110.5072 0001265  92.8931 267.2206 15.08846726 65857,6917.86,95.437,540.6,538.85,0.0
53634.0,STARLINK-4592,PAYLOAD,2023-11-04 04:27:44,15.08833739,9.76e-05,53.217,109.0197,102.6075,257.5026,-6.5976e-05,-1.337e-05,0.0,0 STARLINK-4592,1 53634U 22104AY  23308.18592925 -.00001337  00000-0 -65976-4 0  9990,2 53634  53.2170 109.0197 0000976 102.6075 257.5026 15.08833739 65905,6917.9,95.438,540.44,539.089,0.0
